CSS (TIANHE)            
1 48274U 21035A   24144.62519763  .00055234  00000+0  54078-3 0  9995
2 48274  41.4675 233.0266 0002423  48.2619 311.8428 15.65235219175253
